{"type": "FeatureCollection", "features": [ {"type": "Feature", "properties": {"norad_id": 43262, "name": "GAOFEN-1 04", "group": "resource", "lat": -35.55013987092458, "lon": 41.31788903203514, "alt_km": 647.0744703252867, "timestamp": "2025-12-03T15:48:02.759260+00:00", "meta": {"OBJECT_NAME": "GAOFEN-1 04", "OBJECT_ID": "2018-031D", "EPOCH": "2025-12-03T07:49:50.263680", "MEAN_MOTION": 14.76417628, "ECCENTRICITY": 0.00013478, "INCLINATION": 98.0821, "RA_OF_ASC_NODE": 35.1575, "ARG_OF_PERICENTER": 62.4793, "MEAN_ANOMALY": 297.6553, "EPHEMERIS_TYPE": 0, "CLASSIFICATION_TYPE": "U", "NORAD_CAT_ID": 43262, "ELEMENT_SET_NO": 999, "REV_AT_EPOCH": 41378, "BSTAR": 0.00021997673, "MEAN_MOTION_DOT": 1.477e-05, "MEAN_MOTION_DDOT": 0}, "tle": {"line1": "1 43262U 18031D   25337.32627620  .00001477  00000+0  21998-3 0  9998", "line2": "2 43262  98.0821  35.1575 0001347  62.4793 297.6553 14.76417628413785"}}, "geometry": {"type": "Point", "coordinates": [41.31788903203514, -35.55013987092458]}}, {"type": "Feature", "properties": {"norad_id": 43437, "name": "SENTINEL-3B", "group": "resource", "lat": -46.534213811927756, "lon": 52.19123088878967, "alt_km": 810.3724270045541, "timestamp": "2025-12-03T15:48:02.759269+00:00", "meta": {"OBJECT_NAME": "SENTINEL-3B", "OBJECT_ID": "2018-039A", "EPOCH": "2025-12-03T04:14:23.868096", "MEAN_MOTION": 14.26736807, "ECCENTRICITY": 0.00014575, "INCLINATION": 98.628, "RA_OF_ASC_NODE": 42.4985, "ARG_OF_PERICENTER": 112.0702, "MEAN_ANOMALY": 248.0633, "EPHEMERIS_TYPE": 0, "CLASSIFICATION_TYPE": "U", "NORAD_CAT_ID": 43437, "ELEMENT_SET_NO": 999, "REV_AT_EPOCH": 39617, "BSTAR": 0.00011752651, "MEAN_MOTION_DOT": 2.41e-06, "MEAN_MOTION_DDOT": 0}, "tle": {"line1": "1 43437U 18039A   25337.17666514  .00000241  00000+0  11753-3 0  9994", "line2": "2 43437  98.6280  42.4985 0001457 112.0702 248.0633 14.26736807396174"}}, "geometry": {"type": "Point", "coordinates": [52.19123088878967, -46.534213811927756]}}, {"type": "Feature", "properties": {"norad_id": 43461, "name": "GAOFEN-5 01", "group": "resource", "lat": -74.54491375908823, "lon": -27.088522176328908, "alt_km": 699.1421825043326, "timestamp": "2025-12-03T15:48:02.759278+00:00", "meta": {"OBJECT_NAME": "GAOFEN-5 01", "OBJECT_ID": "2018-043A", "EPOCH": "2025-12-03T07:55:51.680064", "MEAN_MOTION": 14.60392331, "ECCENTRICITY": 0.00015729, "INCLINATION": 98.4313, "RA_OF_ASC_NODE": 300.1343, "ARG_OF_PERICENTER": 10.5844, "MEAN_ANOMALY": 349.5388, "EPHEMERIS_TYPE": 0, "CLASSIFICATION_TYPE": "U", "NORAD_CAT_ID": 43461, "ELEMENT_SET_NO": 999, "REV_AT_EPOCH": 40310, "BSTAR": 0.00016892061, "MEAN_MOTION_DOT": 7.69e-06, "MEAN_MOTION_DDOT": 0}, "tle": {"line1": "1 43461U 18043A   25337.33045926  .00000769  00000+0  16892-3 0  9996", "line2": "2 43461  98.4313 300.1343 0001572  10.5844 349.5388 14.60392331403109"}}, "geometry": {"type": "Point", "coordinates": [-27.088522176328908, -74.54491375908823]}}, {"type": "Feature", "properties": {"norad_id": 43484, "name": "GAOFEN-6", "group": "resource", "lat": 66.91928760558568, "lon": -118.99512277975283, "alt_km": 625.0524308603581, "timestamp": "2025-12-03T15:48:02.759287+00:00", "meta": {"OBJECT_NAME": "GAOFEN-6", "OBJECT_ID": "2018-048A", "EPOCH": "2025-12-03T08:47:30.266592", "MEAN_MOTION": 14.76536644, "ECCENTRICITY": 0.0013319, "INCLINATION": 97.8044, "RA_OF_ASC_NODE": 41.9477, "ARG_OF_PERICENTER": 91.3424, "MEAN_ANOMALY": 268.9312, "EPHEMERIS_TYPE": 0, "CLASSIFICATION_TYPE": "U", "NORAD_CAT_ID": 43484, "ELEMENT_SET_NO": 999, "REV_AT_EPOCH": 40449, "BSTAR": 8.7772836e-05, "MEAN_MOTION_DOT": 5.63e-06, "MEAN_MOTION_DDOT": 0}, "tle": {"line1": "1 43484U 18048A   25337.36632253  .00000563  00000+0  87773-4 0  9993", "line2": "2 43484  97.8044  41.9477 0013319  91.3424 268.9312 14.76536644404497"}}, "geometry": {"type": "Point", "coordinates": [-118.99512277975283, 66.91928760558568]}}, {"type": "Feature", "properties": {"norad_id": 43585, "name": "GAOFEN-11 01", "group": "resource", "lat": 71.49549114301763, "lon": 18.61532059458759, "alt_km": 412.7119362060612, "timestamp": "2025-12-03T15:48:02.759301+00:00", "meta": {"OBJECT_NAME": "GAOFEN-11 01", "OBJECT_ID": "2018-063A", "EPOCH": "2025-12-03T07:44:04.038144", "MEAN_MOTION": 15.48810646, "ECCENTRICITY": 0.00049811, "INCLINATION": 97.1582, "RA_OF_ASC_NODE": 40.3382, "ARG_OF_PERICENTER": 354.1939, "MEAN_ANOMALY": 5.9253, "EPHEMERIS_TYPE": 0, "CLASSIFICATION_TYPE": "U", "NORAD_CAT_ID": 43585, "ELEMENT_SET_NO": 999, "REV_AT_EPOCH": 40996, "BSTAR": 0.00033984936, "MEAN_MOTION_DOT": 0.00018202, "MEAN_MOTION_DDOT": 0}, "tle": {"line1": "1 43585U 18063A   25337.32226896  .00018202  00000+0  33985-3 0  9994", "line2": "2 43585  97.1582  40.3382 0004981 354.1939   5.9253 15.48810646409960"}}, "geometry": {"type": "Point", "coordinates": [18.61532059458759, 71.49549114301763]}}, {"type": "Feature", "properties": {"norad_id": 43613, "name": "ICESAT-2", "group": "resource", "lat": 49.81328932967912, "lon": 60.663479498224106, "alt_km": 476.51131367423477, "timestamp": "2025-12-03T15:48:02.759310+00:00", "meta": {"OBJECT_NAME": "ICESAT-2", "OBJECT_ID": "2018-070A", "EPOCH": "2025-12-03T07:22:32.825568", "MEAN_MOTION": 15.28217703, "ECCENTRICITY": 3.149e-05, "INCLINATION": 92.0056, "RA_OF_ASC_NODE": 238.191, "ARG_OF_PERICENTER": 114.6625, "MEAN_ANOMALY": 245.4657, "EPHEMERIS_TYPE": 0, "CLASSIFICATION_TYPE": "U", "NORAD_CAT_ID": 43613, "ELEMENT_SET_NO": 999, "REV_AT_EPOCH": 40254, "BSTAR": 0.00063779932, "MEAN_MOTION_DOT": 0.00017546, "MEAN_MOTION_DDOT": 0}, "tle": {"line1": "1 43613U 18070A   25337.30732437  .00017546  00000+0  63780-3 0  9991", "line2": "2 43613  92.0056 238.1910 0000314 114.6625 245.4657 15.28217703402542"}}, "geometry": {"type": "Point", "coordinates": [60.663479498224106, 49.81328932967912]}}, {"type": "Feature", "properties": {"norad_id": 43719, "name": "HYSIS", "group": "resource", "lat": 76.55575620765367, "lon": 4.583908468149079, "alt_km": 625.4109320895095, "timestamp": "2025-12-03T15:48:02.759319+00:00", "meta": {"OBJECT_NAME": "HYSIS", "OBJECT_ID": "2018-096A", "EPOCH": "2025-12-03T07:19:24.295584", "MEAN_MOTION": 14.78598396, "ECCENTRICITY": 0.00016323, "INCLINATION": 98.0112, "RA_OF_ASC_NODE": 40.3287, "ARG_OF_PERICENTER": 67.0371, "MEAN_ANOMALY": 293.1012, "EPHEMERIS_TYPE": 0, "CLASSIFICATION_TYPE": "U", "NORAD_CAT_ID": 43719, "ELEMENT_SET_NO": 999, "REV_AT_EPOCH": 37847, "BSTAR": 2.6908319e-05, "MEAN_MOTION_DOT": 1.45e-06, "MEAN_MOTION_DDOT": 0}, "tle": {"line1": "1 43719U 18096A   25337.30514231  .00000145  00000+0  26908-4 0  9995", "line2": "2 43719  98.0112  40.3287 0001632  67.0371 293.1012 14.78598396378474"}}, "geometry": {"type": "Point", "coordinates": [4.583908468149079, 76.55575620765367]}}, {"type": "Feature", "properties": {"norad_id": 43783, "name": "KAZSTSAT", "group": "resource", "lat": -0.2398520640275178, "lon": 13.265200405622728, "alt_km": 567.6040283517577, "timestamp": "2025-12-03T15:48:02.759328+00:00", "meta": {"OBJECT_NAME": "KAZSTSAT", "OBJECT_ID": "2018-099AB", "EPOCH": "2025-12-03T01:23:09.943872", "MEAN_MOTION": 14.99298184, "ECCENTRICITY": 0.00065507, "INCLINATION": 97.4552, "RA_OF_ASC_NODE": 12.659, "ARG_OF_PERICENTER": 5.7461, "MEAN_ANOMALY": 354.3837, "EPHEMERIS_TYPE": 0, "CLASSIFICATION_TYPE": "U", "NORAD_CAT_ID": 43783, "ELEMENT_SET_NO": 999, "REV_AT_EPOCH": 38191, "BSTAR": 0.00022261014, "MEAN_MOTION_DOT": 2.663e-05, "MEAN_MOTION_DDOT": 0}, "tle": {"line1": "1 43783U 18099AB  25337.05775398  .00002663  00000+0  22261-3 0  9998", "line2": "2 43783  97.4552  12.6590 0006550   5.7461 354.3837 14.99298184381911"}}, "geometry": {"type": "Point", "coordinates": [13.265200405622728, -0.2398520640275178]}}, {"type": "Feature", "properties": {"norad_id": 43831, "name": "SAUDISAT 5A", "group": "resource", "lat": -80.46766461218859, "lon": 88.1430551683669, "alt_km": 504.7516151960035, "timestamp": "2025-12-03T15:48:02.759337+00:00", "meta": {"OBJECT_NAME": "SAUDISAT 5A", "OBJECT_ID": "2018-102A", "EPOCH": "2025-12-03T08:17:50.383392", "MEAN_MOTION": 15.25468356, "ECCENTRICITY": 0.00117875, "INCLINATION": 97.3374, "RA_OF_ASC_NODE": 37.7193, "ARG_OF_PERICENTER": 105.0514, "MEAN_ANOMALY": 255.2029, "EPHEMERIS_TYPE": 0, "CLASSIFICATION_TYPE": "U", "NORAD_CAT_ID": 43831, "ELEMENT_SET_NO": 999, "REV_AT_EPOCH": 38579, "BSTAR": 0.00033617703, "MEAN_MOTION_DOT": 8.454e-05, "MEAN_MOTION_DDOT": 0}, "tle": {"line1": "1 43831U 18102A   25337.34572203  .00008454  00000+0  33618-3 0  9991", "line2": "2 43831  97.3374  37.7193 0011787 105.0514 255.2029 15.25468356385796"}}, "geometry": {"type": "Point", "coordinates": [88.1430551683669, -80.46766461218859]}}, {"type": "Feature", "properties": {"norad_id": 43833, "name": "SAUDISAT 5B", "group": "resource", "lat": -42.981619909267074, "lon": 47.65419001826115, "alt_km": 502.39547144128665, "timestamp": "2025-12-03T15:48:02.759347+00:00", "meta": {"OBJECT_NAME": "SAUDISAT 5B", "OBJECT_ID": "2018-102C", "EPOCH": "2025-12-03T08:07:16.985856", "MEAN_MOTION": 15.25825777, "ECCENTRICITY": 0.00124542, "INCLINATION": 97.3469, "RA_OF_ASC_NODE": 40.4338, "ARG_OF_PERICENTER": 107.6163, "MEAN_ANOMALY": 252.6436, "EPHEMERIS_TYPE": 0, "CLASSIFICATION_TYPE": "U", "NORAD_CAT_ID": 43833, "ELEMENT_SET_NO": 999, "REV_AT_EPOCH": 38590, "BSTAR": 0.00033410492, "MEAN_MOTION_DOT": 8.494e-05, "MEAN_MOTION_DDOT": 0}, "tle": {"line1": "1 43833U 18102C   25337.33839104  .00008494  00000+0  33410-3 0  9992", "line2": "2 43833  97.3469  40.4338 0012454 107.6163 252.6436 15.25825777385905"}}, "geometry": {"type": "Point", "coordinates": [47.65419001826115, -42.981619909267074]}}]}